[
    {
        "Altitude(m)": 568688.9195223358,
        "Argument of Periapsis(deg)": 0.019868973332140504,
        "Eccentricity": 0.0,
        "Inclination(deg)": 53.0,
        "Latitude(deg)": -45.25743102136873,
        "Longitude(deg)": 98.48891989135099,
        "Mean Anomaly(deg)": -62.452421397267194,
        "RAAN(deg)": 249.97043010558406,
        "Satellite Name": "Starlink Shell 1 1116",
        "Satellite Number": 1116,
        "Semi-Major Axis(m)": 6931778.249405717,
        "Time(s)": 570
    },
    {
        "Altitude(m)": 568553.5930348807,
        "Argument of Periapsis(deg)": 0.02021755181165174,
        "Eccentricity": 0.0,
        "Inclination(deg)": 53.0,
        "Latitude(deg)": -44.927817039172375,
        "Longitude(deg)": 99.1984481522921,
        "Mean Anomaly(deg)": -61.825590193710525,
        "RAAN(deg)": 249.9699113355066,
        "Satellite Name": "Starlink Shell 1 1116",
        "Satellite Number": 1116,
        "Semi-Major Axis(m)": 6931778.249405717,
        "Time(s)": 580
    },
    {
        "Altitude(m)": 568416.0904401413,
        "Argument of Periapsis(deg)": 0.020566130291162974,
        "Eccentricity": 0.0,
        "Inclination(deg)": 53.0,
        "Latitude(deg)": -44.59329901085804,
        "Longitude(deg)": 99.89939561299606,
        "Mean Anomaly(deg)": -61.198758990153806,
        "RAAN(deg)": 249.96939256542916,
        "Satellite Name": "Starlink Shell 1 1116",
        "Satellite Number": 1116,
        "Semi-Major Axis(m)": 6931778.249405717,
        "Time(s)": 590
    },
    {
        "Altitude(m)": 568276.46587634,
        "Argument of Periapsis(deg)": 0.020914708770674213,
        "Eccentricity": 0.0,
        "Inclination(deg)": 53.0,
        "Latitude(deg)": -44.253987410760814,
        "Longitude(deg)": 100.59183697261544,
        "Mean Anomaly(deg)": -60.57192778659703,
        "RAAN(deg)": 249.96887379535167,
        "Satellite Name": "Starlink Shell 1 1116",
        "Satellite Number": 1116,
        "Semi-Major Axis(m)": 6931778.249405717,
        "Time(s)": 600
    },
    {
        "Altitude(m)": 568134.7742787902,
        "Argument of Periapsis(deg)": 0.021263287250185448,
        "Eccentricity": 0.0,
        "Inclination(deg)": 53.0,
        "Latitude(deg)": -43.90999109292801,
        "Longitude(deg)": 101.2758523988687,
        "Mean Anomaly(deg)": -59.94509658304034,
        "RAAN(deg)": 249.96835502527415,
        "Satellite Name": "Starlink Shell 1 1116",
        "Satellite Number": 1116,
        "Semi-Major Axis(m)": 6931778.249405717,
        "Time(s)": 610
    },
    {
        "Altitude(m)": 567991.0713557618,
        "Argument of Periapsis(deg)": 0.021611865729696686,
        "Eccentricity": 0.0,
        "Inclination(deg)": 53.0,
        "Latitude(deg)": -43.5614172424782,
        "Longitude(deg)": 101.95152758387388,
        "Mean Anomaly(deg)": -59.31826537948361,
        "RAAN(deg)": 249.96783625519674,
        "Satellite Name": "Starlink Shell 1 1116",
        "Satellite Number": 1116,
        "Semi-Major Axis(m)": 6931778.249405717,
        "Time(s)": 620
    },
    {
        "Altitude(m)": 567845.4135639408,
        "Argument of Periapsis(deg)": 0.02196044420920792,
        "Eccentricity": 0.0,
        "Inclination(deg)": 53.0,
        "Latitude(deg)": -43.20837133415948,
        "Longitude(deg)": 102.61895213626833,
        "Mean Anomaly(deg)": -58.69143417592694,
        "RAAN(deg)": 249.96731748511925,
        "Satellite Name": "Starlink Shell 1 1116",
        "Satellite Number": 1116,
        "Semi-Major Axis(m)": 6931778.249405717,
        "Time(s)": 630
    },
    {
        "Altitude(m)": 567697.8580835785,
        "Argument of Periapsis(deg)": 0.02230902268871916,
        "Eccentricity": 0.0,
        "Inclination(deg)": 53.0,
        "Latitude(deg)": -42.8509570976899,
        "Longitude(deg)": 103.27822051251636,
        "Mean Anomaly(deg)": -58.064602972370274,
        "RAAN(deg)": 249.96679871504176,
        "Satellite Name": "Starlink Shell 1 1116",
        "Satellite Number": 1116,
        "Semi-Major Axis(m)": 6931778.249405717,
        "Time(s)": 640
    },
    {
        "Altitude(m)": 567548.4627932803,
        "Argument of Periapsis(deg)": 0.022657601168230398,
        "Eccentricity": 0.0,
        "Inclination(deg)": 53.0,
        "Latitude(deg)": -42.489276489467485,
        "Longitude(deg)": 103.92943044482173,
        "Mean Anomaly(deg)": -57.43777176881356,
        "RAAN(deg)": 249.9662799449643,
        "Satellite Name": "Starlink Shell 1 1116",
        "Satellite Number": 1116,
        "Semi-Major Axis(m)": 6931778.249405717,
        "Time(s)": 650
    },
    {
        "Altitude(m)": 567397.2862444858,
        "Argument of Periapsis(deg)": 0.023006179647741636,
        "Eccentricity": 0.0,
        "Inclination(deg)": 53.0,
        "Latitude(deg)": -42.12342967024301,
        "Longitude(deg)": 104.57268306824504,
        "Mean Anomaly(deg)": -56.810940565256864,
        "RAAN(deg)": 249.96576117488684,
        "Satellite Name": "Starlink Shell 1 1116",
        "Satellite Number": 1116,
        "Semi-Major Axis(m)": 6931778.249405717,
        "Time(s)": 660
    },
    {
        "Altitude(m)": 567244.387635623,
        "Argument of Periapsis(deg)": 0.023354758127252868,
        "Eccentricity": 0.0,
        "Inclination(deg)": 53.0,
        "Latitude(deg)": -41.75351498835604,
        "Longitude(deg)": 105.20808306610941,
        "Mean Anomaly(deg)": -56.18410936169998,
        "RAAN(deg)": 249.96524240480935,
        "Satellite Name": "Starlink Shell 1 1116",
        "Satellite Number": 1116,
        "Semi-Major Axis(m)": 6931778.249405717,
        "Time(s)": 670
    },
    {
        "Altitude(m)": 567089.8267859786,
        "Argument of Periapsis(deg)": 0.023703336606764106,
        "Eccentricity": 0.0,
        "Inclination(deg)": 53.0,
        "Latitude(deg)": -41.379628968146235,
        "Longitude(deg)": 105.83573732075725,
        "Mean Anomaly(deg)": -55.55727815814336,
        "RAAN(deg)": 249.96472363473188,
        "Satellite Name": "Starlink Shell 1 1116",
        "Satellite Number": 1116,
        "Semi-Major Axis(m)": 6931778.249405717,
        "Time(s)": 680
    },
    {
        "Altitude(m)": 566933.6641092513,
        "Argument of Periapsis(deg)": 0.024051915086275345,
        "Eccentricity": 0.0,
        "Inclination(deg)": 53.0,
        "Latitude(deg)": -41.00186630316062,
        "Longitude(deg)": 106.45575509524056,
        "Mean Anomaly(deg)": -54.9304469545867,
        "RAAN(deg)": 249.9642048646544,
        "Satellite Name": "Starlink Shell 1 1116",
        "Satellite Number": 1116,
        "Semi-Major Axis(m)": 6931778.249405717,
        "Time(s)": 690
    },
    {
        "Altitude(m)": 566775.9605868614,
        "Argument of Periapsis(deg)": 0.024400493565786583,
        "Eccentricity": 0.0,
        "Inclination(deg)": 53.0,
        "Latitude(deg)": -40.62031985379519,
        "Longitude(deg)": 107.06824823281696,
        "Mean Anomaly(deg)": -54.30361575102993,
        "RAAN(deg)": 249.9636860945769,
        "Satellite Name": "Starlink Shell 1 1116",
        "Satellite Number": 1116,
        "Semi-Major Axis(m)": 6931778.249405717,
        "Time(s)": 700
    },
    {
        "Altitude(m)": 566616.7777409407,
        "Argument of Periapsis(deg)": 0.024749072045297815,
        "Eccentricity": 0.0,
        "Inclination(deg)": 53.0,
        "Latitude(deg)": -40.235080649016965,
        "Longitude(deg)": 107.67332986105723,
        "Mean Anomaly(deg)": -53.67678454747318,
        "RAAN(deg)": 249.9631673244995,
        "Satellite Name": "Starlink Shell 1 1116",
        "Satellite Number": 1116,
        "Semi-Major Axis(m)": 6931778.249405717,
        "Time(s)": 710
    },
    {
        "Altitude(m)": 566456.1776071182,
        "Argument of Periapsis(deg)": 0.025097650524809053,
        "Eccentricity": 0.0,
        "Inclination(deg)": 53.0,
        "Latitude(deg)": -39.84623789183163,
        "Longitude(deg)": 108.27111462591441,
        "Mean Anomaly(deg)": -53.04995334391651,
        "RAAN(deg)": 249.962648554422,
        "Satellite Name": "Starlink Shell 1 1116",
        "Satellite Number": 1116,
        "Semi-Major Axis(m)": 6931778.249405717,
        "Time(s)": 720
    },
    {
        "Altitude(m)": 566294.2227070228,
        "Argument of Periapsis(deg)": 0.02544622900432029,
        "Eccentricity": 0.0,
        "Inclination(deg)": 53.0,
        "Latitude(deg)": -39.45387896817566,
        "Longitude(deg)": 108.86171894243735,
        "Mean Anomaly(deg)": -52.42312214035984,
        "RAAN(deg)": 249.96212978434448,
        "Satellite Name": "Starlink Shell 1 1116",
        "Satellite Number": 1116,
        "Semi-Major Axis(m)": 6931778.249405717,
        "Time(s)": 730
    },
    {
        "Altitude(m)": 566130.9760205806,
        "Argument of Periapsis(deg)": 0.02579480748383153,
        "Eccentricity": 0.0,
        "Inclination(deg)": 53.0,
        "Latitude(deg)": -39.05808945892574,
        "Longitude(deg)": 109.44525974876932,
        "Mean Anomaly(deg)": -51.79629093680312,
        "RAAN(deg)": 249.96161101426708,
        "Satellite Name": "Starlink Shell 1 1116",
        "Satellite Number": 1116,
        "Semi-Major Axis(m)": 6931778.249405717,
        "Time(s)": 740
    },
    {
        "Altitude(m)": 565966.5009580697,
        "Argument of Periapsis(deg)": 0.026143385963342765,
        "Eccentricity": 0.0,
        "Inclination(deg)": 53.0,
        "Latitude(deg)": -38.65895315473689,
        "Longitude(deg)": 110.02185478864759,
        "Mean Anomaly(deg)": -51.16945973324635,
        "RAAN(deg)": 249.9610922441896,
        "Satellite Name": "Starlink Shell 1 1116",
        "Satellite Number": 1116,
        "Semi-Major Axis(m)": 6931778.249405717,
        "Time(s)": 750
    }
]